ONEWEB-0331             
1 49198U 21083N   25295.50212677  .00000046  00000+0  82821-4 0  9992
2 49198  87.9232  22.6494 0001698  89.8951 270.2375 13.18685084198687
ONEWEB-0333             
1 49199U 21083P   25295.46606652 -.00000348  00000+0 -98752-3 0  9994
2 49199  87.9027   7.5035 0001738 103.4017 256.7306 13.13470843199701
ONEWEB-0334             
1 49200U 21083Q   25295.49349036  .00000115  00000+0  25059-3 0  9990
2 49200  87.9197 321.8686 0002201 121.8367 238.2981 13.20770183205412
ONEWEB-0335             
1 49201U 21083R   25295.46098450 -.00000308  00000+0 -87726-3 0  9994
2 49201  87.9029   7.4924 0001703  95.0266 265.1057 13.13470949199712
ONEWEB-0336             
1 49202U 21083S   25295.50839436  .00000310  00000+0  81480-3 0  9999
2 49202  87.9030   7.4780 0001765  86.5952 273.5379 13.13470016199715
ONEWEB-0337             
1 49203U 21083T   25295.44223288  .00000122  00000+0  29949-3 0  9998
2 49203  87.9045   7.4994 0001933  94.4608 265.6742 13.13470479199700
ONEWEB-0338             
1 49204U 21083U   25295.46824010  .00000051  00000+0  92873-4 0  9999
2 49204  87.9204 321.8748 0001971 103.7934 256.3419 13.20772760205438
ONEWEB-0339             
1 49205U 21083V   25295.45082586 -.00000068  00000+0 -22210-3 0  9990
2 49205  87.9038   7.4801 0001983 101.9827 258.1525 13.13468717199688
